{
  "norad_id": 65775,
  "name": "KUIPER-00156",
  "history": [
    {
      "epoch": "2026-03-28T20:19:34.288032Z",
      "apogee_km": 629.7402017201239,
      "perigee_km": 629.3551995226717,
      "latitude_deg": 3.0782619151729694e-05,
      "longitude_deg": 169.7663542897149,
      "height_km": 630.2418326776833,
      "semi_major_axis_km": 7007.6847006213975,
      "eccentricity": 2.747e-05,
      "inclination_deg": 51.9039,
      "raan_deg": 300.9207,
      "arg_perigee_deg": 74.1165,
      "mean_anomaly_deg": 285.9828,
      "mean_motion_rev_day": 14.79929176
    }
  ]
}