{"fetched_at":"2026-03-29T16:36:15Z","count":15609,"tles":[{"name":"KUIPER-00156","line1":"1 65775U 25217P   26087.84692463  .00023762  00000+0  31353-2 0  9998","line2":"2 65775  51.9039 300.9207 0000274  74.1165 285.9828 14.79929176 27957","category":"Other"}]}